STARLINK-1008           
1 44714U 19074B   26062.70076734  .00000394  00000+0  24886-4 0  9998
2 44714  53.1585 206.6104 0001141  87.9097 272.2035 15.31040470347959
STARLINK-1012           
1 44718U 19074F   26062.61258035  .00002147  00000+0  84595-4 0  9999
2 44718  53.1616 207.0344 0001174  90.7608 269.3527 15.30204995347939
STARLINK-1017           
1 44723U 19074L   26063.36215777  .00075692  00000+0  31075-2 0  9992
2 44723  53.0548 196.0304 0001359 116.4764 243.6372 15.23555619348157
STARLINK-1019           
1 44724U 19074M   26063.50001156  .00126640  00000+0  66662-3 0  9994
2 44724  53.0437 162.7792 0002539 182.7388 224.0281 15.79832676  6004
STARLINK-1020           
1 44725U 19074N   26063.00001156  .00042094  00000+0  14273-2 0  9990
2 44725  53.1600 230.2760 0001421  73.7495   0.6730 15.30154760  5847
STARLINK-1031           
1 44736U 19074Z   26063.50001156  .00223646  00000+0  77744-3 0  9994
2 44736  53.0403 146.4590 0004128 341.2800 120.5412 15.88269823  5926
STARLINK-1036           
1 44741U 19074AE  26063.40775990  .00146419  00000+0  21407-2 0  9999
2 44741  53.0520 214.0977 0002908 228.3104 131.7658 15.54640484347901
STARLINK-1039           
1 44744U 19074AH  26063.49137360  .00049647  00000+0  22063-2 0  9998
2 44744  53.0477 238.9809 0004699 156.4076 203.7135 15.21054688347563
STARLINK-1042           
1 44747U 19074AL  26063.42944047  .00035169  00000+0  63306-3 0  9992
2 44747  53.0435 120.0266 0001937 110.6882 249.4334 15.49507558349252
STARLINK-1043           
1 44748U 19074AM  26063.44669090  .00046336  00000+0  72660-3 0  9998
2 44748  53.0530 219.7861 0002307  92.3304 267.7969 15.53254591347833
STARLINK-1046           
1 44751U 19074AQ  26063.49460264  .00048366  00000+0  10784-2 0  9992
2 44751  53.0533 235.5301 0006355 158.9782 201.1486 15.43107820347614
STARLINK-1047           
1 44752U 19074AR  26063.47472123  .00015645  00000+0  50298-3 0  9997
2 44752  53.0710 170.3669 0002715 183.1946 176.9038 15.32448854348541
STARLINK-1048           
1 44753U 19074AS  26063.50001156  .00088788  00000+0  14262-2 0  9994
2 44753  53.0527 193.8544 0001506 166.1561 185.2893 15.52305148  5789
STARLINK-1053           
1 44758U 19074AX  26063.50001156  .00330665  00000+0  10902-2 0  9990
2 44758  53.0276 109.8997 0007563  34.9717 179.6455 15.89041418  6035
STARLINK-1063           
1 44768U 19074BH  26063.52711362 -.00630996  00000+0 -23461-1 0  9995
2 44768  53.1564 243.3733 0002701  33.2699 326.8471 15.29359231347524
STARLINK-1067           
1 44771U 19074BL  26063.49486339  .00151038  00000+0  20795-2 0  9999
2 44771  53.0519 229.3607 0002024 309.5676  50.5156 15.56256334347704
