[{"OBJECT_NAME":"STARLINK-1008","OBJECT_ID":"2019-074B","EPOCH":"2026-03-03T16:49:06.298176","MEAN_MOTION":15.3104047,"ECCENTRICITY":0.00011411,"INCLINATION":53.1585,"RA_OF_ASC_NODE":206.6104,"ARG_OF_PERICENTER":87.9097,"MEAN_ANOMALY":272.2035,"EPHEMERIS_TYPE":0,"CLASSIFICATION_TYPE":"U","NORAD_CAT_ID":44714,"ELEMENT_SET_NO":999,"REV_AT_EPOCH":34795,"BSTAR":2.4885863e-5,"MEAN_MOTION_DOT":3.94e-6,"MEAN_MOTION_DDOT":0},{"OBJECT_NAME":"STARLINK-1012","OBJECT_ID":"2019-074F","EPOCH":"2026-03-03T14:42:06.942240","MEAN_MOTION":15.30204995,"ECCENTRICITY":0.0001174,"INCLINATION":53.1616,"RA_OF_ASC_NODE":207.0344,"ARG_OF_PERICENTER":90.7608,"MEAN_ANOMALY":269.3527,"EPHEMERIS_TYPE":0,"CLASSIFICATION_TYPE":"U","NORAD_CAT_ID":44718,"ELEMENT_SET_NO":999,"REV_AT_EPOCH":34793,"BSTAR":8.4595e-5,"MEAN_MOTION_DOT":2.147e-5,"MEAN_MOTION_DDOT":0},{"OBJECT_NAME":"STARLINK-1017","OBJECT_ID":"2019-074L","EPOCH":"2026-03-04T08:41:30.431328","MEAN_MOTION":15.23555619,"ECCENTRICITY":0.0001359,"INCLINATION":53.0548,"RA_OF_ASC_NODE":196.0304,"ARG_OF_PERICENTER":116.4764,"MEAN_ANOMALY":243.6372,"EPHEMERIS_TYPE":0,"CLASSIFICATION_TYPE":"U","NORAD_CAT_ID":44723,"ELEMENT_SET_NO":999,"REV_AT_EPOCH":34815,"BSTAR":0.0031075,"MEAN_MOTION_DOT":0.00075692,"MEAN_MOTION_DDOT":0},{"OBJECT_NAME":"STARLINK-1019","OBJECT_ID":"2019-074M","EPOCH":"2026-03-04T12:00:00.998784","MEAN_MOTION":15.79832676,"ECCENTRICITY":0.0002539,"INCLINATION":53.0437,"RA_OF_ASC_NODE":162.7792,"ARG_OF_PERICENTER":182.7388,"MEAN_ANOMALY":224.0281,"EPHEMERIS_TYPE":0,"CLASSIFICATION_TYPE":"U","NORAD_CAT_ID":44724,"ELEMENT_SET_NO":999,"REV_AT_EPOCH":600,"BSTAR":0.00066662,"MEAN_MOTION_DOT":0.0012664,"MEAN_MOTION_DDOT":0},{"OBJECT_NAME":"STARLINK-1020","OBJECT_ID":"2019-074N","EPOCH":"2026-03-04T00:00:00.998784","MEAN_MOTION":15.3015476,"ECCENTRICITY":0.0001421,"INCLINATION":53.16,"RA_OF_ASC_NODE":230.276,"ARG_OF_PERICENTER":73.7495,"MEAN_ANOMALY":0.673,"EPHEMERIS_TYPE":0,"CLASSIFICATION_TYPE":"U","NORAD_CAT_ID":44725,"ELEMENT_SET_NO":999,"REV_AT_EPOCH":584,"BSTAR":0.0014273,"MEAN_MOTION_DOT":0.00042094,"MEAN_MOTION_DDOT":0},{"OBJECT_NAME":"STARLINK-1031","OBJECT_ID":"2019-074Z","EPOCH":"2026-03-04T12:00:00.998784","MEAN_MOTION":15.88269823,"ECCENTRICITY":0.0004128,"INCLINATION":53.0403,"RA_OF_ASC_NODE":146.459,"ARG_OF_PERICENTER":341.28,"MEAN_ANOMALY":120.5412,"EPHEMERIS_TYPE":0,"CLASSIFICATION_TYPE":"U","NORAD_CAT_ID":44736,"ELEMENT_SET_NO":999,"REV_AT_EPOCH":592,"BSTAR":0.00077744,"MEAN_MOTION_DOT":0.00223646,"MEAN_MOTION_DDOT":0},{"OBJECT_NAME":"STARLINK-1036","OBJECT_ID":"2019-074AE","EPOCH":"2026-03-04T09:47:10.455360","MEAN_MOTION":15.54640484,"ECCENTRICITY":0.0002908,"INCLINATION":53.052,"RA_OF_ASC_NODE":214.0977,"ARG_OF_PERICENTER":228.3104,"MEAN_ANOMALY":131.7658,"EPHEMERIS_TYPE":0,"CLASSIFICATION_TYPE":"U","NORAD_CAT_ID":44741,"ELEMENT_SET_NO":999,"REV_AT_EPOCH":34790,"BSTAR":0.0021407,"MEAN_MOTION_DOT":0.00146419,"MEAN_MOTION_DDOT":0},{"OBJECT_NAME":"STARLINK-1039","OBJECT_ID":"2019-074AH","EPOCH":"2026-03-04T11:47:34.679040","MEAN_MOTION":15.21054688,"ECCENTRICITY":0.0004699,"INCLINATION":53.0477,"RA_OF_ASC_NODE":238.9809,"ARG_OF_PERICENTER":156.4076,"MEAN_ANOMALY":203.7135,"EPHEMERIS_TYPE":0,"CLASSIFICATION_TYPE":"U","NORAD_CAT_ID":44744,"ELEMENT_SET_NO":999,"REV_AT_EPOCH":34756,"BSTAR":0.0022063,"MEAN_MOTION_DOT":0.00049647,"MEAN_MOTION_DDOT":0},{"OBJECT_NAME":"STARLINK-1042","OBJECT_ID":"2019-074AL","EPOCH":"2026-03-04T10:18:23.656608","MEAN_MOTION":15.49507558,"ECCENTRICITY":0.0001937,"INCLINATION":53.0435,"RA_OF_ASC_NODE":120.0266,"ARG_OF_PERICENTER":110.6882,"MEAN_ANOMALY":249.4334,"EPHEMERIS_TYPE":0,"CLASSIFICATION_TYPE":"U","NORAD_CAT_ID":44747,"ELEMENT_SET_NO":999,"REV_AT_EPOCH":34925,"BSTAR":0.00063306,"MEAN_MOTION_DOT":0.00035169,"MEAN_MOTION_DDOT":0},{"OBJECT_NAME":"STARLINK-1043","OBJECT_ID":"2019-074AM","EPOCH":"2026-03-04T10:43:14.093760","MEAN_MOTION":15.53254591,"ECCENTRICITY":0.0002307,"INCLINATION":53.053,"RA_OF_ASC_NODE":219.7861,"ARG_OF_PERICENTER":92.3304,"MEAN_ANOMALY":267.7969,"EPHEMERIS_TYPE":0,"CLASSIFICATION_TYPE":"U","NORAD_CAT_ID":44748,"ELEMENT_SET_NO":999,"REV_AT_EPOCH":34783,"BSTAR":0.0007266,"MEAN_MOTION_DOT":0.00046336,"MEAN_MOTION_DDOT":0},{"OBJECT_NAME":"STARLINK-1046","OBJECT_ID":"2019-074AQ","EPOCH":"2026-03-04T11:52:13.668096","MEAN_MOTION":15.4310782,"ECCENTRICITY":0.0006355,"INCLINATION":53.0533,"RA_OF_ASC_NODE":235.5301,"ARG_OF_PERICENTER":158.9782,"MEAN_ANOMALY":201.1486,"EPHEMERIS_TYPE":0,"CLASSIFICATION_TYPE":"U","NORAD_CAT_ID":44751,"ELEMENT_SET_NO":999,"REV_AT_EPOCH":34761,"BSTAR":0.0010784,"MEAN_MOTION_DOT":0.00048366,"MEAN_MOTION_DDOT":0},{"OBJECT_NAME":"STARLINK-1047","OBJECT_ID":"2019-074AR","EPOCH":"2026-03-04T11:23:35.914272","MEAN_MOTION":15.32448854,"ECCENTRICITY":0.0002715,"INCLINATION":53.071,"RA_OF_ASC_NODE":170.3669,"ARG_OF_PERICENTER":183.1946,"MEAN_ANOMALY":176.9038,"EPHEMERIS_TYPE":0,"CLASSIFICATION_TYPE":"U","NORAD_CAT_ID":44752,"ELEMENT_SET_NO":999,"REV_AT_EPOCH":34854,"BSTAR":0.00050298,"MEAN_MOTION_DOT":0.00015645,"MEAN_MOTION_DDOT":0},{"OBJECT_NAME":"STARLINK-1048","OBJECT_ID":"2019-074AS","EPOCH":"2026-03-04T12:00:00.998784","MEAN_MOTION":15.52305148,"ECCENTRICITY":0.0001506,"INCLINATION":53.0527,"RA_OF_ASC_NODE":193.8544,"ARG_OF_PERICENTER":166.1561,"MEAN_ANOMALY":185.2893,"EPHEMERIS_TYPE":0,"CLASSIFICATION_TYPE":"U","NORAD_CAT_ID":44753,"ELEMENT_SET_NO":999,"REV_AT_EPOCH":578,"BSTAR":0.0014262,"MEAN_MOTION_DOT":0.00088788,"MEAN_MOTION_DDOT":0},{"OBJECT_NAME":"STARLINK-1053","OBJECT_ID":"2019-074AX","EPOCH":"2026-03-04T12:00:00.998784","MEAN_MOTION":15.89041418,"ECCENTRICITY":0.0007563,"INCLINATION":53.0276,"RA_OF_ASC_NODE":109.8997,"ARG_OF_PERICENTER":34.9717,"MEAN_ANOMALY":179.6455,"EPHEMERIS_TYPE":0,"CLASSIFICATION_TYPE":"U","NORAD_CAT_ID":44758,"ELEMENT_SET_NO":999,"REV_AT_EPOCH":603,"BSTAR":0.0010902,"MEAN_MOTION_DOT":0.00330665,"MEAN_MOTION_DDOT":0},{"OBJECT_NAME":"STARLINK-1063","OBJECT_ID":"2019-074BH","EPOCH":"2026-03-04T12:39:02.616768","MEAN_MOTION":15.29359231,"ECCENTRICITY":0.0002701,"INCLINATION":53.1564,"RA_OF_ASC_NODE":243.3733,"ARG_OF_PERICENTER":33.2699,"MEAN_ANOMALY":326.8471,"EPHEMERIS_TYPE":0,"CLASSIFICATION_TYPE":"U","NORAD_CAT_ID":44768,"ELEMENT_SET_NO":999,"REV_AT_EPOCH":34752,"BSTAR":-0.023461,"MEAN_MOTION_DOT":-0.00630996,"MEAN_MOTION_DDOT":0},{"OBJECT_NAME":"STARLINK-1067","OBJECT_ID":"2019-074BL","EPOCH":"2026-03-04T11:52:36.196896","MEAN_MOTION":15.56256334,"ECCENTRICITY":0.0002024,"INCLINATION":53.0519,"RA_OF_ASC_NODE":229.3607,"ARG_OF_PERICENTER":309.5676,"MEAN_ANOMALY":50.5156,"EPHEMERIS_TYPE":0,"CLASSIFICATION_TYPE":"U","NORAD_CAT_ID":44771,"ELEMENT_SET_NO":999,"REV_AT_EPOCH":34770,"BSTAR":0.0020795,"MEAN_MOTION_DOT":0.00151038,"MEAN_MOTION_DDOT":0}]
